IRIDIUM 116             
1 43072U 17083C   25329.14208769  .00000382  00000+0  12948-3 0  9992
2 43072  86.3981  47.2883 0002285 105.3304 254.8144 14.34218286414925
IRIDIUM 130             
1 43073U 17083D   25328.76153095  .00000384  00000+0  13004-3 0  9997
2 43073  86.3990  47.7028 0002042 105.0071 255.1351 14.34217863414813
IRIDIUM 151             
1 43074U 17083E   25328.94545897  .00000389  00000+0  13200-3 0  9996
2 43074  86.3984  47.4238 0002214  98.6581 261.4866 14.34218222414867
IRIDIUM 134             
1 43075U 17083F   25328.98351323  .00000385  00000+0  13044-3 0  9992
2 43075  86.3983  47.4130 0002015 101.5649 258.5773 14.34220006414830
IRIDIUM 137             
1 43076U 17083G   25328.71712807  .00000363  00000+0  12270-3 0  9998
2 43076  86.3987  47.6131 0002620 103.3965 256.7523 14.34218760414861
IRIDIUM 141             
1 43077U 17083H   25328.92009271  .00000379  00000+0  12840-3 0  9996
2 43077  86.3981  47.3704 0002090  93.6842 266.4592 14.34219220414894
IRIDIUM 153             
1 43078U 17083J   25329.08157929  .00000358  00000+0  12081-3 0  9993
2 43078  86.3988  15.7940 0001998  87.9741 272.1683 14.34218572416024
IRIDIUM 131             
1 43079U 17083K   25328.76786578  .00000390  00000+0  13213-3 0  9990
2 43079  86.3986  47.6064 0002150  93.6273 266.5169 14.34220219414800
